GPS BIIA-23 (PRN 18)    
1 22877U 93068A   19104.47472378 -.00000006  00000-0  00000+0 0  9995
2 22877  54.6422  71.1576 0149662  78.9836  68.0220  2.00558827186591
GPS BIIR-2  (PRN 13)    
1 24876U 97035A   19103.66893143 -.00000014  00000-0  00000+0 0  9990
2 24876  55.4620 200.9918 0033764  75.2852 285.1086  2.00564630159171
GPS BIIR-3  (PRN 11)    
1 25933U 99055A   19104.01406352 -.00000054  00000-0  00000+0 0  9995
2 25933  52.0879  48.6123 0163397 107.6662  68.7145  2.00560279142993
GPS BIIR-4  (PRN 20)    
1 26360U 00025A   19104.21689285  .00000057  00000-0  00000+0 0  9991
2 26360  53.3095 127.1045 0041974 135.9657 233.4136  2.00562050138694
GPS BIIR-5  (PRN 28)    
1 26407U 00040A   19104.72803656 -.00000018  00000-0  00000+0 0  9994
2 26407  56.3004 319.0792 0193233 275.8696  76.5930  2.00560547137385
GPS BIIR-6  (PRN 14)    
1 26605U 00071A   19104.40895198 -.00000017  00000-0  00000+0 0  9994
2 26605  55.0361 198.4359 0106623 249.0412 144.7083  2.00561518134979
GPS BIIR-8  (PRN 16)    
1 27663U 03005A   19103.98024706 -.00000016  00000-0  00000+0 0  9999
2 27663  56.3617 318.8801 0106895  31.2834 259.6368  2.00577575118730
GPS BIIR-9  (PRN 21)    
1 27704U 03010A   19102.62390160  .00000000  00000-0  00000+0 0  9993
2 27704  54.3154  70.7234 0249489 276.5849  81.9840  2.00553258117508
GPS BIIR-10 (PRN 22)    
1 28129U 03058A   19102.36221717  .00000045  00000-0  00000+0 0  9998
2 28129  53.1205 129.9791 0075361 280.4367  78.7732  2.00579424112191
GPS BIIR-11 (PRN 19)    
1 28190U 04009A   19104.25146333 -.00000083  00000-0  00000+0 0  9996
2 28190  56.2571  19.6528 0093007  78.5488 202.9204  2.00568900110414
GPS BIIR-12 (PRN 23)    
1 28361U 04023A   19104.54431663 -.00000014  00000-0  00000+0 0  9991
2 28361  54.0481 192.8638 0132501 230.3235 175.4995  2.00571131108505
GPS BIIR-13 (PRN 02)    
1 28474U 04045A   19104.25338730 -.00000006  00000-0  00000+0 0  9990
2 28474  54.6759  70.3841 0191533 259.8082 298.8142  2.00561758105859
GPS BIIRM-1 (PRN 17)    
1 28874U 05038A   19104.72379405 -.00000085  00000-0  00000+0 0  9990
2 28874  56.3831  16.9792 0131088 262.0344  22.2553  2.00557870 99273
GPS BIIRM-2 (PRN 31)    
1 29486U 06042A   19103.69638846  .00000010  00000-0  00000+0 0  9995
2 29486  55.0293 255.6226 0092228 358.6426 184.3437  2.00572739 91960
GPS BIIRM-3 (PRN 12)    
1 29601U 06052A   19103.38886985 -.00000014  00000-0  00000+0 0  9995
2 29601  56.3415 317.8198 0074269  60.0375 300.7361  2.00564801 90870
GPS BIIRM-4 (PRN 15)    
1 32260U 07047A   19102.70272496 -.00000004  00000-0  00000+0 0  9995
2 32260  53.1712 188.6874 0111021  43.2894 317.6192  2.00563742 84237
GPS BIIRM-5 (PRN 29)    
1 32384U 07062A   19104.38876914 -.00000083  00000-0  00000+0 0  9997
2 32384  56.4658  17.6268 0006967  92.0849 182.9212  2.00552726 83001
GPS BIIRM-6 (PRN 07)    
1 32711U 08012A   19104.10440190  .00000004  00000-0  00000+0 0  9992
2 32711  54.7677 254.8113 0126273 219.2671 139.7828  2.00572356 81181
GPS BIIRM-8 (PRN 05)    
1 35752U 09043A   19103.82410480  .00000056  00000-0  00000+0 0  9999
2 35752  54.4066 132.5086 0054301  38.4167 143.9887  2.00564246 70765
GPS BIIF-1  (PRN 25)    
1 36585U 10022A   19104.17583245 -.00000011  00000-0  00000+0 0  9994
2 36585  55.6222 314.1344 0082353  49.5741 130.1156  2.00557332 65018
GPS BIIF-2  (PRN 01)    
1 37753U 11036A   19103.31160473  .00000010  00000-0  00000+0 0  9995
2 37753  55.8725  74.3082 0085074  38.2406 323.6507  2.00565793 56688
GPS BIIF-3  (PRN 24)    
1 38833U 12053A   19103.79352751  .00000003  00000-0  00000-0 0  9992
2 38833  53.8021 251.0879 0081445  33.4273 327.0549  2.00557524 46978
GPS BIIF-4  (PRN 27)    
1 39166U 13023A   19103.65451230 -.00000081  00000-0  00000+0 0  9993
2 39166  56.0675  13.8182 0068904  24.8188 335.5301  2.00567918 43293
GPS BIIF-5  (PRN 30)    
1 39533U 14008A   19104.64659244 -.00000005  00000-0  00000+0 0  9996
2 39533  53.9351 256.4405 0039156 191.3158 168.5661  2.00571329 37674
GPS BIIF-6  (PRN 06)    
1 39741U 14026A   19103.93587270  .00000006  00000-0  00000+0 0  9997
2 39741  55.8533  73.8089 0018239 292.7039  67.0942  2.00576658 35943
GPS BIIF-7  (PRN 09)    
1 40105U 14045A   19104.52366037 -.00000013  00000-0  00000+0 0  9995
2 40105  54.5746 193.1337 0010899 102.5735 257.5798  2.00560277 34403
GPS BIIF-8  (PRN 03)    
1 40294U 14068A   19103.88897262  .00000057  00000-0  00000+0 0  9993
2 40294  55.1585 134.0095 0018633  26.4081 333.7524  2.00578773 32612
GPS BIIF-9  (PRN 26)    
1 40534U 15013A   19103.53679325 -.00000011  00000-0  00000+0 0  9992
2 40534  54.5525 312.5693 0037028   5.6091 354.4643  2.00573701 29672
GPS BIIF-10  (PRN 08)   
1 40730U 15033A   19104.19153024 -.00000084  00000-0  00000+0 0  9998
2 40730  55.5932  13.1656 0044673 341.5863  18.2723  2.00558017 27449
GPS BIIF-11  (PRN 10)   
1 41019U 15062A   19104.24163502  .00000060  00000-0  00000+0 0  9992
2 41019  55.1604 133.8092 0045826 207.6896 152.1310  2.00564588 25263
GPS BIIF-12  (PRN 32)   
1 41328U 16007A   19103.34219324 -.00000009  00000-0  00000+0 0  9993
2 41328  54.8195 193.5534 0029844 217.0765 142.7499  2.00551705 23306
